#dP2022  4 23  0  0  0.00000000      97 __u+U IGS14 FIT  IAC
## 2206 518400.00000000   900.00000000 59692 0.0000000000000
+  121   C01C02C03C04C06C07C08C09C10C11C12C13C14C16C19C20C21
+        C22C23C24C25C26C27C28C29C30C32C33C34C35C36C37C38C39
+        C40C41C42C43C44C45C46C60E01E02E03E04E05E07E08E09E10
+        E11E12E13E14E15E18E19E21E24E25E26E27E30E31E33E34E36
+        G01G02G03G04G05G06G07G08G09G10G12G13G14G15G16G18G19
+        G20G21G22G23G24G25G26G27G28G29G30G31G32J02J03J07R01
+        R02R03R04R05R07R08R09R11R12R13R14R15R17R18R19R20R21
+        R22R24  0  0  0  0  0  0  0  0  0  0  0  0  0  0  0
++        11 12 12 12  8  8  7  7  7  7  7  7  6  7  6  6  5
++         6  6  6  6  6  6  5  6  5  6  6  6  6  6  6  7  7
++         7  6  6  6  6  6  6 11  4  4  4  5  4  4  4  4  5
++         4  4  4  4  4  5  4  4  4  4  4  4  4  4  4  5  4
++         4  4  3  3  3  3  4  3  3  3  4  3  4  3  3  4  4
++         4  4  4  3  3  3  3  3  5  3  3  4  3  9  9 14  7
++         6  6  6  6  6  6  6  7  6  7  6  6  6  6  7  7  6
++         7  6  0  0  0  0  0  0  0  0  0  0  0  0  0  0  0
%c M  cc GPS ccc cccc cccc cccc cccc ccccc ccccc ccccc ccccc
%c cc cc ccc ccc cccc cccc cccc cccc ccccc ccccc ccccc ccccc
%f  1.2500000  1.025000000  0.00000000000  0.000000000000000
%f  0.0000000  0.000000000  0.00000000000  0.000000000000000
%i    0    0    0    0      0      0      0      0         0
%i    0    0    0    0      0      0      0      0         0
/* INFORMATION & ANALYSIS CENTER (IAC)            FINAL DATA
/* S/V CLOCKS ARE ALIGNED TO GNSS TIME                      
/* G:C1WC2W R:C1PC2P E:C1XC5X C:C2IC6I J:C1CC2S             
/* PCV:IGS14_2196 OL/AL:FES2004  NONE     YN ORB:CoN CLK:CoN
*  2022 04 23 23  0  0.00000000
PC01 -34370.362434  24443.624471   -527.671805    116.618089
PC02   4554.495420  41924.557123   -374.485353     96.594204
PC03 -14743.471557  39508.623126  -1153.948223   -561.657909
PC04 -39610.293379  14467.149978   -388.464317    154.599927
PC06 -17420.467418  27166.237503  27046.261026   -148.356563
PC07  -9360.759031  40333.980233   8379.231403    -78.284235
PC08  -1285.090555  24050.420274 -34570.388466    275.851264
PC09  -6700.692940  26403.918862  32411.329504   -724.095688
PC10  -3505.976297  42264.109498   1537.029842    135.175054
PC11 -24696.917817    516.220392  13066.027103    310.226600
PC12 -11002.800022 -11749.482997  22826.680411   -625.097214
PC13   7213.828091  28553.681261 -29923.279552    -52.201943
PC14 -15447.700862  -3993.809802 -22864.183697    462.047024
PC16 -19897.920381  26770.893547  25808.964837    123.256082
PC19  15901.284517  -7343.685692  21751.780423    875.741435
PC20  13042.823786  12949.994837  21029.190377   -888.589417
PC21  -2090.076583 -26757.607808  -7570.810292   -166.454341
PC22   9705.554850 -24211.406318   9883.121795   -970.606786
PC23  -8936.993939  13636.784396  22649.135276   -931.426711
PC24 -22364.379747 -16711.412396    180.065364   -956.381359
PC25 -22111.657224   -854.631195  17006.680704   -746.644153
PC26 -10914.988087 -20951.369027 -14893.146939    747.533145
PC27   1496.736225  16300.534664 -22621.558024    712.518768
PC28 -17390.717557  17202.002825 -13432.519091     58.785408
PC29  26160.215279  -8806.474149  -4139.644873    545.405292
PC30  19432.463775   5770.734900 -19200.133471    497.422746
PC32   2309.943745  26770.875528   7581.789283   -962.770020
PC33 -15872.238885   7401.083260 -21719.088654   -966.703662
PC34 -20133.705501  -5100.557477  18610.728713   -418.877032
PC35  17586.860690 -17633.701378  12616.715479    242.579318
PC36  22291.218773   1822.652523 -16665.837383   -963.878098
PC37   9315.830391  21084.809201  15726.853364   -919.725905
PC38  -9621.398545  21604.859446 -34864.224993    227.276355
PC39 -24782.257929  27138.992608  20540.868825     34.952046
PC40 -14412.950192  37911.332288  11809.575827    263.351654
PC41  -9825.752083  24024.325943 -10196.128698   -966.481634
PC42 -12673.827826 -13950.501421 -20522.042198   -956.022485
PC43 -26220.497246   8229.906343   4754.984456   -928.176877
PC44  -1835.079684 -16442.780079  22462.529087    637.489206
PC45   8574.894111 -13745.892798 -22722.281463    739.163033
PC46  22897.784951  15832.385715  -1638.101022   -287.955704
PC60   7288.133103  41520.775376  -1470.764235     -0.677118
PE01   8699.335384  27904.268929   4646.875138   -622.166891
PE02  -8812.878085 -27908.745167  -4497.397423    294.762761
PE03    246.437031 -22834.773323 -18821.969614   -551.147343
PE04  15371.046025   7783.371593  24081.606058  -1013.066047
PE05  16040.594548 -24761.181566  -2381.588742   -188.037751
PE07 -22255.821475  12275.201813 -15167.814529   -661.613279
PE08 -15480.720108  -7321.111521 -24137.082738   -517.435940
PE09  22142.406707 -12512.884745  15140.619495   -494.622402
PE10  29327.237770   3794.878309  -1361.295171   -508.607064
PE11  28107.875950  -2863.731331   8854.706019   3872.483043
PE12  25834.987452   9700.294060 -10745.580369   4647.922066
PE13 -28314.402738   2480.388545  -8241.030720    428.225931
PE14  -9328.223532  26596.853712 -15592.735193  -1824.680815
PE15 -25751.828666  -9678.580361  10911.620777    749.853449
PE18  10159.525969 -19523.622834   9105.212465  -1529.405185
PE19  -2517.837749  23860.603567  17346.315306  -3517.104897
PE21  -5087.033301  21585.163390  19598.534893   -730.202739
PE24  17346.341430  -1160.051698 -23969.773947   -577.406906
PE25   5282.095756 -21403.439871 -19754.190467   -571.476325
PE26 -13273.250892  13563.253942 -22713.657117  -1065.098732
PE27 -16867.998383   2511.125024  24193.680173   -283.088014
PE30 -18334.544559 -18789.055083  13677.741580   -455.016137
PE31  18612.735691  17859.707949 -14509.927924   -495.539884
PE33   8038.116901  16067.316010 -23526.525229   -457.323497
PE34  -8279.739654 -16032.816457  23455.662246   -513.590398
PE36  14249.718807 -13087.310822  22406.167310   -363.927389
PG01  18758.406961  13771.780339 -13419.565062    378.218057
PG02   3387.980125 -15058.057797  22275.494115   -653.225737
PG03  12911.655638  21394.147364   9062.964352   -218.515839
PG04   9580.928705  11885.901792  21739.878459   -173.398069
PG05  -4655.192041 -25411.432003   5652.612682    -79.384842
PG06  19009.086197  -7148.192585  17225.676728    277.667552
PG07  26203.684082   5633.673289   -890.578087    320.970391
PG08   1213.785457  18397.780650 -19022.746616    -65.186900
PG09  17684.719838   1276.088978  19718.848068   -341.706576
PG10 -13647.477134   6107.210657 -21790.354224   -389.602016
PG12  -9378.503169 -24230.279200   5542.042358   -204.947269
PG13   8704.426060 -20235.769622 -14866.139266    299.444621
PG14  14633.694674  -4824.034431 -21635.665715   -104.513957
PG15  -4463.110287 -18177.906494 -19142.755179    -66.610417
PG16  -1524.308948  24448.736439   9387.856159   -494.590137
PG18 -25948.839263  -5828.068800  -1130.698552    187.950034
PG19  20692.010598 -16426.223652  -1535.095045    148.320553
PG20   1386.880816 -22041.044370  14922.600093    515.685809
PG21   9898.739344  15025.722985 -19109.620008    160.674265
PG22 -18653.262939  18700.771816   1981.290840    248.125972
PG23 -16487.768465  -5993.062591 -19981.430178    -17.149479
PG24 -15679.760992 -14561.706134 -16284.803074    252.274203
PG25 -16030.357081 -13786.583295  15952.669127    315.887468
PG26  -7927.219244  17379.001205  18241.581697    200.800294
PG27  -9961.213661  21801.001524 -11205.171019    189.855441
PG28  10594.649280 -14334.000766 -19253.620260    368.074391
PG29 -16689.372266  -3201.105151  20377.869557   -506.338181
PG30  24740.567907  -1218.430305  -9844.266269   -525.092764
PG31 -17443.834851   8704.577100  18114.986155   -174.714790
PG32 -20410.214832  15560.213650  -6292.971361   -111.872920
PJ02 -24863.085584  24261.777236  28803.496200     -2.959159
PJ03 -34997.959953  19277.815101  -8796.799274     -1.715348
PJ07 -25341.044597  33700.547944     24.250555     -0.027617
PR01 -10693.992253  -2799.563700 -22980.802924      8.060022
PR02 -12533.158283  16806.629636 -14437.370077    516.416218
PR03  -6527.868155  24527.522149   2294.806331     55.451937
PR04   2752.578133  18384.589054  17497.381014    138.181656
PR05  10644.438176   2179.905910  23095.956303     91.684203
PR07   6281.891045 -24574.113062  -2879.417681     34.219025
PR08  -2898.421964 -18355.418757 -17423.591796    -64.761653
PR09  11142.514942  -4443.734319 -22504.153940     51.386411
PR11 -15367.219320 -19683.110460  -5164.247624     40.489927
PR12 -18903.843229 -11111.788043  13070.586556     18.073367
PR13 -11774.785963   3185.817454  22384.310093    -21.322101
PR14   3263.098718  16840.142273  18894.206510     76.843270
PR15  15512.932827  19778.132755   4363.737275     96.613252
PR17  -8911.596098  11648.085886 -20875.002866    520.127853
PR18   9248.668127   8261.544152 -22290.233956    114.559976
PR19  21900.074562   1819.360092 -12958.724084   -186.501314
PR20  23359.960545  -7454.153511   7122.383105    -69.223142
PR21   7397.355499 -11479.896404  21535.146794   -295.729604
PR22  -9913.723300  -8006.892418  22058.320641   -178.805989
PR24 -22817.783443   8404.415745  -7705.543262     90.499426
EOF
